ONEWEB-0128             
1 47274U 20100S   25347.62213117  .00000337  00000+0  90156-3 0  9997
2 47274  87.8933  27.5604 0001814  88.9637 271.1700 13.12467675240403
ONEWEB-0129             
1 47275U 20100T   25347.60116362 -.00002352  00000+0 -65802-2 0  9990
2 47275  87.8941  27.5183 0000778  62.2983 297.8224 13.12400048240331
ONEWEB-0130             
1 47276U 20100U   25347.62865967  .00000095  00000+0  22948-3 0  9990
2 47276  87.8943  27.5079 0001735  92.8042 267.3285 13.12451210240300
ONEWEB-0131             
1 47277U 20100V   25347.62538210  .00000828  00000+0  22655-2 0  9997
2 47277  87.8946  27.5387 0001812  96.3167 263.8168 13.12467770240342
ONEWEB-0132             
1 47278U 20100W   25347.65451613  .00003701  00000+0  10238-1 0  9998
2 47278  87.8940  27.5349 0001798  94.7218 265.4116 13.12500724240244
ONEWEB-0133             
1 47279U 20100X   25347.67073064 -.00000204  00000+0 -60279-3 0  9990
2 47279  87.8935  27.4931 0001856  93.4424 266.6917 13.12429221240407
ONEWEB-0134             
1 47280U 20100Y   25347.64010993 -.00002882  00000+0 -80519-2 0  9993
2 47280  87.8935  27.4944 0002103  88.6168 271.5201 13.12405851240370
ONEWEB-0135             
1 47281U 20100Z   25347.61099360 -.00004328  00000+0 -12087-1 0  9997
2 47281  87.8936  27.5395 0002082  83.9915 276.1451 13.12358302240395
